[{"OBJECT_NAME":"STARLINK-31430","OBJECT_ID":"2024-062B","EPOCH":"2026-03-09T21:26:03.255936","MEAN_MOTION":15.30197499,"ECCENTRICITY":0.00010307,"INCLINATION":53.1582,"RA_OF_ASC_NODE":257.4825,"ARG_OF_PERICENTER":130.7995,"MEAN_ANOMALY":229.3095,"EPHEMERIS_TYPE":0,"CLASSIFICATION_TYPE":"U","NORAD_CAT_ID":59375,"ELEMENT_SET_NO":999,"REV_AT_EPOCH":10966,"BSTAR":-7.095733e-5,"MEAN_MOTION_DOT":-2.46e-5,"MEAN_MOTION_DDOT":0},{"OBJECT_NAME":"239ALFEROV (RS61S)","OBJECT_ID":"2025-155F","EPOCH":"2026-03-09T21:46:33.382848","MEAN_MOTION":15.29933217,"ECCENTRICITY":0.00084878,"INCLINATION":97.4469,"RA_OF_ASC_NODE":37.6373,"ARG_OF_PERICENTER":151.5904,"MEAN_ANOMALY":208.58,"EPHEMERIS_TYPE":0,"CLASSIFICATION_TYPE":"U","NORAD_CAT_ID":64881,"ELEMENT_SET_NO":999,"REV_AT_EPOCH":6561,"BSTAR":0.00067233359,"MEAN_MOTION_DOT":0.00019457,"MEAN_MOTION_DDOT":0}]
